NORAD_CAT_ID,OBJECT_NAME,OBJECT_TYPE,EPOCH,MEAN_MOTION,ECCENTRICITY,INCLINATION,RA_OF_ASC_NODE,ARG_OF_PERICENTER,MEAN_ANOMALY,BSTAR,MEAN_MOTION_DOT,MEAN_MOTION_DDOT,TLE_LINE0,TLE_LINE1,TLE_LINE2,SEMIMAJOR_AXIS,PERIOD,APOGEE,PERIGEE,DECAYED
49414.0,STARLINK-3146,PAYLOAD,2023-03-11 13:29:27,15.08809303,0.0001404,53.2152,100.8497,68.753,291.3612,0.0012779,0.00020091,0.0,0 STARLINK-3146,1 49414U 21104G   23070.56211842  .00020091  00000-0  12779-2 0  9991,2 49414  53.2152 100.8497 0001404  68.7530 291.3612 15.08809303 73459,6917.974,95.439,540.811,538.868,0.0
49414.0,STARLINK-3146,PAYLOAD,2023-03-11 15:04:50,15.08814545,0.0001398,53.2154,100.5521,79.715,280.4,0.0015448,0.00024366,0.0,0 STARLINK-3146,1 49414U 21104G   23070.62835887  .00024366  00000-0  15448-2 0  9994,2 49414  53.2154 100.5521 0001398  79.7150 280.4000 15.08814545 74554,6917.958,95.439,540.79,538.856,0.0
49414.0,STARLINK-3146,PAYLOAD,2023-03-12 05:23:18,15.08852384,0.0001437,53.2154,97.8754,82.1395,277.9761,0.0015354,0.00024241,0.0,0 STARLINK-3146,1 49414U 21104G   23071.22451894  .00024241  00000-0  15354-2 0  9991,2 49414  53.2154  97.8754 0001437  82.1395 277.9761 15.08852384 73550,6917.843,95.437,540.702,538.713,0.0
49414.0,STARLINK-3146,PAYLOAD,2023-03-13 02:03:18,15.08862904,0.000139,53.2152,94.01,81.6899,278.4251,0.00065663,0.00010184,0.0,0 STARLINK-3146,1 49414U 21104G   23072.08562951  .00010184  00000-0  65663-3 0  9993,2 49414  53.2152  94.0100 0001390  81.6899 278.4251 15.08862904 74777,6917.81,95.436,540.637,538.714,0.0
49414.0,STARLINK-3146,PAYLOAD,2023-03-14 01:54:05,15.088487,0.0002718,53.2159,89.5492,107.3078,252.8211,0.00045295,6.93e-05,0.0,0 STARLINK-3146,1 49414U 21104G   23073.07922769  .00006930  00000-0  45295-3 0  9993,2 49414  53.2159  89.5492 0002718 107.3078 252.8211 15.08848700 74924,6917.854,95.437,541.599,537.839,0.0
49414.0,STARLINK-3146,PAYLOAD,2023-03-14 08:15:37,15.08843434,0.0001313,53.2154,88.3604,81.7811,278.333,5.9805e-08,-2.87e-06,0.0,0 STARLINK-3146,1 49414U 21104G   23073.34418852 -.00000287  00000-0  59805-7 0  9992,2 49414  53.2154  88.3604 0001313  81.7811 278.3330 15.08843434 74969,6917.87,95.437,540.643,538.827,0.0
49414.0,STARLINK-3146,PAYLOAD,2023-03-14 17:47:56,15.08844002,0.0001494,53.2153,86.5752,99.0554,261.0607,3.3635e-05,2.47e-06,0.0,0 STARLINK-3146,1 49414U 21104G   23073.74162778  .00000247  00000-0  33635-4 0  9994,2 49414  53.2153  86.5752 0001494  99.0554 261.0607 15.08844002 73932,6917.868,95.437,540.767,538.7,0.0
49414.0,STARLINK-3146,PAYLOAD,2023-03-15 08:06:24,15.08855342,0.0001557,53.2159,83.8995,98.5904,261.5264,0.00032207,4.844e-05,0.0,0 STARLINK-3146,1 49414U 21104G   23074.33778204  .00004844  00000-0  32207-3 0  9997,2 49414  53.2159  83.8995 0001557  98.5904 261.5264 15.08855342 75115,6917.833,95.437,540.776,538.621,0.0
49414.0,STARLINK-3146,PAYLOAD,2023-03-15 12:52:33,15.08867421,0.0001386,53.2155,83.0055,114.8228,245.2909,0.00049507,7.606e-05,0.0,0 STARLINK-3146,1 49414U 21104G   23074.53649388  .00007606  00000-0  49507-3 0  9999,2 49414  53.2155  83.0055 0001386 114.8228 245.2909 15.08867421 74059,6917.797,95.436,540.62,538.703,0.0
49414.0,STARLINK-3146,PAYLOAD,2023-03-16 00:00:16,15.0884013,0.0001972,53.2157,80.9257,91.8686,268.2532,6.7269e-05,7.83e-06,0.0,0 STARLINK-3146,1 49414U 21104G   23075.00018682  .00000783  00000-0  67269-4 0  9994,2 49414  53.2157  80.9257 0001972  91.8686 268.2532 15.08840130 75218,6917.88,95.438,541.109,538.381,0.0
49414.0,STARLINK-3146,PAYLOAD,2023-03-16 09:32:34,15.08845386,0.0001297,53.2155,79.1417,98.2208,261.8931,0.00040956,6.237e-05,0.0,0 STARLINK-3146,1 49414U 21104G   23075.39762265  .00006237  00000-0  40956-3 0  9992,2 49414  53.2155  79.1417 0001297  98.2208 261.8931 15.08845386 74180,6917.864,95.437,540.626,538.832,0.0
49414.0,STARLINK-3146,PAYLOAD,2023-03-16 17:29:30,15.08830496,0.0001357,53.2144,77.6541,93.6564,266.4583,0.00021961,3.208e-05,0.0,0 STARLINK-3146,1 49414U 21104G   23075.72882825  .00003208  00000-0  21961-3 0  9994,2 49414  53.2144  77.6541 0001357  93.6564 266.4583 15.08830496 74236,6917.909,95.438,540.713,538.836,0.0
49414.0,STARLINK-3146,PAYLOAD,2023-03-16 23:51:03,15.08828594,0.0001628,53.2155,76.465,86.3335,273.7843,0.00060241,9.309e-05,0.0,0 STARLINK-3146,1 49414U 21104G   23075.99379278  .00009309  00000-0  60241-3 0  9998,2 49414  53.2155  76.4650 0001628  86.3335 273.7843 15.08828594 75363,6917.915,95.438,540.906,538.654,0.0
49414.0,STARLINK-3146,PAYLOAD,2023-03-17 10:58:45,15.08833987,0.00014,53.2156,74.3816,98.8922,261.2229,0.00052062,8.006e-05,0.0,0 STARLINK-3146,1 49414U 21104G   23076.45747449  .00008006  00000-0  52062-3 0  9994,2 49414  53.2156  74.3816 0001400  98.8922 261.2229 15.08833987 74342,6917.899,95.438,540.732,538.795,0.0
49414.0,STARLINK-3146,PAYLOAD,2023-03-17 17:20:18,15.08836052,0.0001416,53.2152,73.1933,89.6829,270.4325,0.00054281,8.36e-05,0.0,0 STARLINK-3146,1 49414U 21104G   23076.72243631  .00008360  00000-0  54281-3 0  9996,2 49414  53.2152  73.1933 0001416  89.6829 270.4325 15.08836052 74385,6917.892,95.438,540.737,538.778,0.0
49414.0,STARLINK-3146,PAYLOAD,2023-03-18 06:03:23,15.08855459,0.0001385,53.2152,70.8138,88.8306,271.2845,0.00074726,0.0001163,0.0,0 STARLINK-3146,1 49414U 21104G   23077.25235098  .00011630  00000-0  74726-3 0  9993,2 49414  53.2152  70.8138 0001385  88.8306 271.2845 15.08855459 75550,6917.833,95.437,540.656,538.74,0.0
49414.0,STARLINK-3146,PAYLOAD,2023-03-18 10:49:32,15.08862406,0.0001402,53.2153,69.9214,90.3447,269.7706,0.00081844,0.00012769,0.0,0 STARLINK-3146,1 49414U 21104G   23077.45106786  .00012769  00000-0  81844-3 0  9999,2 49414  53.2153  69.9214 0001402  90.3447 269.7706 15.08862406 74499,6917.812,95.436,540.647,538.707,0.0
49414.0,STARLINK-3146,PAYLOAD,2023-03-19 04:18:47,15.08838612,0.0001275,53.2152,66.6505,114.1179,245.9947,0.00014964,2.094e-05,0.0,0 STARLINK-3146,1 49414U 21104G   23078.17971346  .00002094  00000-0  14964-3 0  9990,2 49414  53.2152  66.6505 0001275 114.1179 245.9947 15.08838612 75698,6917.885,95.438,540.632,538.868,0.0
49414.0,STARLINK-3146,PAYLOAD,2023-03-19 10:40:19,15.08852285,0.0001097,53.216,65.4621,98.7001,261.4116,0.0010034,0.00015723,0.0,0 STARLINK-3146,1 49414U 21104G   23078.44467353  .00015723  00000-0  10034-2 0  9994,2 49414  53.2160  65.4621 0001097  98.7001 261.4116 15.08852285 74643,6917.843,95.437,540.467,538.949,0.0
49414.0,STARLINK-3146,PAYLOAD,2023-03-20 04:09:34,15.08845913,0.0001235,53.2163,62.1906,97.9168,262.1965,0.0010399,0.00016303,0.0,0 STARLINK-3146,1 49414U 21104G   23079.17331461  .00016303  00000-0  10399-2 0  9994,2 49414  53.2163  62.1906 0001235  97.9168 262.1965 15.08845913 75848,6917.862,95.437,540.582,538.873,0.0
49414.0,STARLINK-3146,PAYLOAD,2023-03-20 07:20:20,15.08855989,0.0001226,53.2164,61.5967,109.0377,251.0748,0.0013806,0.00021762,0.0,0 STARLINK-3146,1 49414U 21104G   23079.30579220  .00021762  00000-0  13806-2 0  9997,2 49414  53.2164  61.5967 0001226 109.0377 251.0748 15.08855989 74777,6917.832,95.437,540.545,538.848,0.0
49414.0,STARLINK-3146,PAYLOAD,2023-03-20 15:17:15,15.08854744,0.0001067,53.2164,60.1092,97.8915,262.2198,0.00051527,7.925e-05,0.0,0 STARLINK-3146,1 49414U 21104G   23079.63699027  .00007925  00000-0  51527-3 0  9999,2 49414  53.2164  60.1092 0001067  97.8915 262.2198 15.08854744 74823,6917.835,95.437,540.438,538.962,0.0
49414.0,STARLINK-3146,PAYLOAD,2023-03-21 05:35:44,15.08840466,0.0001315,53.2177,57.4374,113.3585,246.7546,-5.1255e-06,-3.69e-06,0.0,0 STARLINK-3146,1 49414U 21104G   23080.23315343 -.00000369  00000-0 -51255-5 0  9990,2 49414  53.2177  57.4374 0001315 113.3585 246.7546 15.08840466 76004,6917.879,95.438,540.654,538.834,0.0
49414.0,STARLINK-3146,PAYLOAD,2023-03-21 08:46:30,15.08842961,0.0001033,53.2166,56.8386,90.1768,269.9342,8.6368e-05,1.087e-05,0.0,0 STARLINK-3146,1 49414U 21104G   23080.36563253  .00001087  00000-0  86368-4 0  9997,2 49414  53.2166  56.8386 0001033  90.1768 269.9342 15.08842961 74933,6917.871,95.437,540.451,539.022,0.0
49414.0,STARLINK-3146,PAYLOAD,2023-03-22 07:01:54,15.08846808,0.0001281,53.2163,52.6753,96.2154,263.8984,0.00018605,2.675e-05,0.0,0 STARLINK-3146,1 49414U 21104G   23081.29299397  .00002675  00000-0  18605-3 0  9997,2 49414  53.2163  52.6753 0001281  96.2154 263.8984 15.08846808 76169,6917.86,95.437,540.611,538.838,0.0
49414.0,STARLINK-3146,PAYLOAD,2023-03-22 14:58:50,15.08843008,0.000124,53.2166,51.1891,93.6012,266.5122,0.00024593,3.629e-05,0.0,0 STARLINK-3146,1 49414U 21104G   23081.62419640  .00003629  00000-0  24593-3 0  9992,2 49414  53.2166  51.1891 0001240  93.6012 266.5122 15.08843008 75126,6917.871,95.437,540.594,538.878,0.0
49414.0,STARLINK-3146,PAYLOAD,2023-03-23 03:41:55,15.08840921,9.57e-05,53.2179,48.8098,87.6137,272.4965,0.00011396,1.526e-05,0.0,0 STARLINK-3146,1 49414U 21104G   23082.15411598  .00001526  00000-0  11396-3 0  9996,2 49414  53.2179  48.8098 0000957  87.6137 272.4965 15.08840921 76298,6917.878,95.437,540.405,539.081,0.0
49414.0,STARLINK-3146,PAYLOAD,2023-03-23 05:17:18,15.0884749,0.0001144,53.2165,48.5122,83.7145,276.3978,0.00025684,3.803e-05,0.0,0 STARLINK-3146,1 49414U 21104G   23082.22035434  .00003803  00000-0  25684-3 0  9990,2 49414  53.2165  48.5122 0001144  83.7145 276.3978 15.08847490 75219,6917.857,95.437,540.514,538.931,0.0
49414.0,STARLINK-3146,PAYLOAD,2023-03-24 05:08:04,15.0888266,0.0001186,53.2173,44.0519,106.244,253.8682,0.0009256,0.00014491,0.0,0 STARLINK-3146,1 49414U 21104G   23083.21394506  .00014491  00000-0  92560-3 0  9990,2 49414  53.2173  44.0519 0001186 106.2440 253.8682 15.08882660 76451,6917.75,95.435,540.435,538.795,0.0
49414.0,STARLINK-3146,PAYLOAD,2023-03-25 03:23:29,15.08848845,0.0001324,53.217,39.8887,79.4624,280.6518,0.00011425,1.531e-05,0.0,0 STARLINK-3146,1 49414U 21104G   23084.14130919  .00001531  00000-0  11425-3 0  9991,2 49414  53.2170  39.8887 0001324  79.4624 280.6518 15.08848845 76595,6917.853,95.437,540.634,538.802,0.0
